NIMIQ 6                 
1 38342U 12026A   26094.23473738 -.00000174  00000+0  00000+0 0  9990
2 38342   0.0451  68.1529 0002601 304.8740 172.9236  1.00271852 49670
ZHONGXING-2A            
1 38352U 12028A   26094.11711435 -.00000293  00000+0  00000+0 0  9991
2 38352   1.2634  84.8470 0000928 337.3258 270.7036  1.00271664 50557
INTELSAT 19 (IS-19)     
1 38356U 12030A   26094.23030840 -.00000057  00000+0  00000+0 0  9993
2 38356   0.0206 112.9512 0003064 263.5924  64.9174  1.00270509 49705
ECHOSTAR 17             
1 38551U 12035A   26094.08372611 -.00000076  00000+0  00000+0 0  9994
2 38551   0.0186 175.3194 0001940 204.3574  95.7615  1.00272213 50329
METEOSAT-10 (MSG-3)     
1 38552U 12035B   26094.17619981 -.00000005  00000+0  00000+0 0  9991
2 38552   4.4973  61.3269 0002426 295.6453 259.0200  1.00273251 50113
SES-5                   
1 38652U 12036A   26094.17723981  .00000033  00000+0  00000+0 0  9999
2 38652   0.0597 304.3178 0001981  71.5629 245.3841  1.00270782 43711
INTELSAT 20 (IS-20)     
1 38740U 12043A   26094.61764476 -.00000024  00000+0  00000+0 0  9999
2 38740   0.0174 134.0441 0002642  33.9804 315.7560  1.00271574 50014
HYLAS 2                 
1 38741U 12043B   26094.23322670 -.00000257  00000+0  00000+0 0  9992
2 38741   2.2366  81.9533 0002749 317.1440 164.8735  1.00272814 50032
INTELSAT 21 (IS-21)     
1 38749U 12045A   26094.23608671  .00000000  00000+0  00000+0 0  9995
2 38749   0.0203 212.6000 0001946 178.1812 188.7695  1.00270089 49786
ASTRA 2F                
1 38778U 12051A   26094.18864199  .00000149  00000+0  00000+0 0  9991
2 38778   0.0674 255.2493 0001522  31.8562   1.5201  1.00269385 40396
GSAT-10                 
1 38779U 12051B   26094.22614111 -.00000165  00000+0  00000+0 0  9993
2 38779   0.0847 265.6871 0006175 171.5252 279.7188  1.00273174 49350
INTELSAT 23 (IS-23)     
1 38867U 12057A   26094.23704005 -.00000285  00000+0  00000+0 0  9993
2 38867   0.0182 249.6397 0000595 152.9859 182.2427  1.00269445 49216
BEIDOU-2 G6             
1 38953U 12059A   26094.05027265 -.00000175  00000+0  00000+0 0  9995
2 38953   4.2347  74.3032 0010894 311.1806 269.0380  1.00271777 49161
LUCH-5B                 
1 38977U 12061A   26094.17299313 -.00000135  00000+0  00000+0 0  9998
2 38977  10.3265  50.6027 0002451 229.3603 318.4857  1.00273620 48863
YAMAL 300K              
1 38978U 12061B   26094.06985939  .00000070  00000+0  00000+0 0  9990
2 38978   0.0110 186.0808 0000393  45.6533 168.7500  1.00272982 48887
STAR ONE C3             
1 38991U 12062A   26094.23270670 -.00000250  00000+0  00000+0 0  9995
2 38991   0.0297 267.8834 0002534 127.3143 166.1130  1.00271931 49020
EUTELSAT 21B            
1 38992U 12062B   26094.19419966  .00000129  00000+0  00000+0 0  9998
2 38992   0.0709   8.9559 0002834   3.0250 272.0308  1.00272988 49082
